NORAD_CAT_ID,OBJECT_NAME,OBJECT_TYPE,EPOCH,MEAN_MOTION,ECCENTRICITY,INCLINATION,RA_OF_ASC_NODE,ARG_OF_PERICENTER,MEAN_ANOMALY,BSTAR,MEAN_MOTION_DOT,MEAN_MOTION_DDOT,TLE_LINE0,TLE_LINE1,TLE_LINE2,SEMIMAJOR_AXIS,PERIOD,APOGEE,PERIGEE,DECAYED
53706.0,STARLINK-4716,PAYLOAD,2023-10-13 05:14:09,15.08851988,0.0001458,53.2168,227.7928,78.3351,281.7805,0.0015205,0.00024002,0.0,0 STARLINK-4716,1 53706U 22107G   23286.21816790  .00024002  00000-0  15205-2 0  9991,2 53706  53.2168 227.7928 0001458  78.3351 281.7805 15.08851988 62237,6917.844,95.437,540.717,538.7,0.0
53706.0,STARLINK-4716,PAYLOAD,2023-10-14 03:29:32,15.08880532,0.000122,53.216,223.6293,99.282,260.831,0.0022037,0.00034997,0.0,0 STARLINK-4716,1 53706U 22107G   23287.14552035  .00034997  00000-0  22037-2 0  9998,2 53706  53.2160 223.6293 0001220  99.2820 260.8310 15.08880532 61627,6917.757,95.435,540.465,538.778,0.0
53706.0,STARLINK-4716,PAYLOAD,2023-10-14 13:01:52,15.08844852,0.0002449,53.2164,221.8456,78.8618,281.265,0.00050682,7.788e-05,0.0,0 STARLINK-4716,1 53706U 22107G   23287.54296771  .00007788  00000-0  50682-3 0  9990,2 53706  53.2164 221.8456 0002449  78.8618 281.2650 15.08844852 62433,6917.866,95.437,541.425,538.036,0.0
53706.0,STARLINK-4716,PAYLOAD,2023-10-14 19:23:25,15.08842322,0.0002965,53.2154,220.6588,80.1574,279.9753,0.0017909,0.00028332,0.0,0 STARLINK-4716,1 53706U 22107G   23287.80793151  .00028332  00000-0  17909-2 0  9995,2 53706  53.2154 220.6588 0002965  80.1574 279.9753 15.08842322 61724,6917.873,95.437,541.789,537.687,0.0
53706.0,STARLINK-4716,PAYLOAD,2023-10-15 03:20:21,15.08826592,0.0001533,53.2166,219.1706,81.6856,278.431,0.0015843,0.00025007,0.0,0 STARLINK-4716,1 53706U 22107G   23288.13913440  .00025007  00000-0  15843-2 0  9998,2 53706  53.2166 219.1706 0001533  81.6856 278.4310 15.08826592 61770,6917.921,95.438,540.847,538.726,0.0
53706.0,STARLINK-4716,PAYLOAD,2023-10-15 12:52:40,15.08830155,0.0001659,53.2162,217.3856,81.0738,279.0442,0.0010754,0.00016864,0.0,0 STARLINK-4716,1 53706U 22107G   23288.53657925  .00016864  00000-0  10754-2 0  9992,2 53706  53.2162 217.3856 0001659  81.0738 279.0442 15.08830155 62587,6917.91,95.438,540.923,538.628,0.0
53706.0,STARLINK-4716,PAYLOAD,2023-10-16 04:46:31,15.08860164,0.0001587,53.2158,214.4112,84.203,275.9143,0.001327,0.00020906,0.0,0 STARLINK-4716,1 53706U 22107G   23289.19897552  .00020906  00000-0  13270-2 0  9995,2 53706  53.2158 214.4112 0001587  84.2030 275.9143 15.08860164 62682,6917.819,95.436,540.782,538.586,0.0
53706.0,STARLINK-4716,PAYLOAD,2023-10-18 01:17:18,15.08843764,0.0001888,53.2171,206.0835,76.7876,283.3327,9.8932e-05,1.287e-05,0.0,0 STARLINK-4716,1 53706U 22107G   23291.05369182  .00001287  00000-0  98932-4 0  9997,2 53706  53.2171 206.0835 0001888  76.7876 283.3327 15.08843764 62969,6917.869,95.437,541.04,538.428,0.0
53706.0,STARLINK-4716,PAYLOAD,2023-10-18 04:28:04,15.08846944,0.0001737,53.2177,205.4872,97.4569,262.6621,7.5932e-05,9.21e-06,0.0,0 STARLINK-4716,1 53706U 22107G   23291.18616879  .00000921  00000-0  75932-4 0  9998,2 53706  53.2177 205.4872 0001737  97.4569 262.6621 15.08846944 62231,6917.859,95.437,540.926,538.523,0.0
53706.0,STARLINK-4716,PAYLOAD,2023-10-18 06:03:27,15.08857632,0.0001432,53.2175,205.1926,83.6394,276.4761,0.00015213,2.135e-05,0.0,0 STARLINK-4716,1 53706U 22107G   23291.25240281  .00002135  00000-0  15213-3 0  9990,2 53706  53.2175 205.1926 0001432  83.6394 276.4761 15.08857632 62246,6917.826,95.436,540.682,538.701,0.0
53706.0,STARLINK-4716,PAYLOAD,2023-10-19 04:18:51,15.08858165,0.0001244,53.2167,201.0307,90.2469,269.8666,0.0004454,6.811e-05,0.0,0 STARLINK-4716,1 53706U 22107G   23292.17976246  .00006811  00000-0  44540-3 0  9999,2 53706  53.2167 201.0307 0001244  90.2469 269.8666 15.08858165 62380,6917.825,95.436,540.55,538.829,0.0
53706.0,STARLINK-4716,PAYLOAD,2023-10-19 18:37:20,15.0884324,0.0001191,53.2163,198.3545,86.6373,273.4756,3.7445e-05,3.08e-06,0.0,0 STARLINK-4716,1 53706U 22107G   23292.77592689  .00000308  00000-0  37445-4 0  9992,2 53706  53.2163 198.3545 0001191  86.6373 273.4756 15.08843240 62471,6917.87,95.437,540.559,538.912,0.0
53706.0,STARLINK-4716,PAYLOAD,2023-10-20 02:34:15,15.08853338,0.0001205,53.216,196.8676,84.4272,275.6858,0.00025763,3.816e-05,0.0,0 STARLINK-4716,1 53706U 22107G   23293.10712145  .00003816  00000-0  25763-3 0  9997,2 53706  53.2160 196.8676 0001205  84.4272 275.6858 15.08853338 62528,6917.84,95.437,540.538,538.871,0.0
53706.0,STARLINK-4716,PAYLOAD,2023-10-20 21:38:54,15.08824478,0.0001692,53.2168,193.3009,63.4789,296.6377,-0.00018887,-3.291e-05,0.0,0 STARLINK-4716,1 53706U 22107G   23293.90201994 -.00003291  00000-0 -18887-3 0  9998,2 53706  53.2168 193.3009 0001692  63.4789 296.6377 15.08824478 63396,6917.928,95.439,540.963,538.622,0.0
53706.0,STARLINK-4716,PAYLOAD,2023-10-21 02:25:03,15.08829805,0.0001659,53.2167,192.4082,92.5862,267.532,3.6012e-05,2.85e-06,0.0,0 STARLINK-4716,1 53706U 22107G   23294.10073941  .00000285  00000-0  36012-4 0  9999,2 53706  53.2167 192.4082 0001659  92.5862 267.5320 15.08829805 62678,6917.912,95.438,540.924,538.629,0.0
53706.0,STARLINK-4716,PAYLOAD,2023-10-21 10:21:59,15.08843107,0.0001565,53.2159,190.921,87.9092,272.2079,0.00078127,0.00012169,0.0,0 STARLINK-4716,1 53706U 22107G   23294.43194028  .00012169  00000-0  78127-3 0  9991,2 53706  53.2159 190.9210 0001565  87.9092 272.2079 15.08843107 63478,6917.871,95.437,540.819,538.653,0.0
53706.0,STARLINK-4716,PAYLOAD,2023-10-21 21:29:41,15.08864922,0.0001521,53.2152,188.8392,90.0956,270.0211,0.0010861,0.00017051,0.0,0 STARLINK-4716,1 53706U 22107G   23294.89561359  .00017051  00000-0  10861-2 0  9991,2 53706  53.2152 188.8392 0001521  90.0956 270.0211 15.08864922 63544,6917.804,95.436,540.721,538.617,0.0
53706.0,STARLINK-4716,PAYLOAD,2023-10-22 00:40:26,15.08878274,0.0001664,53.2154,188.2448,87.8904,272.2279,0.0011892,0.00018709,0.0,0 STARLINK-4716,1 53706U 22107G   23295.02808972  .00018709  00000-0  11892-2 0  9998,2 53706  53.2154 188.2448 0001664  87.8904 272.2279 15.08878274 62819,6917.763,95.435,540.78,538.477,0.0
53706.0,STARLINK-4716,PAYLOAD,2023-10-22 10:12:46,15.08844856,0.0002302,53.2158,186.4617,71.2481,288.8761,2.1089e-05,4.7e-07,0.0,0 STARLINK-4716,1 53706U 22107G   23295.42553489  .00000047  00000-0  21089-4 0  9999,2 53706  53.2158 186.4617 0002302  71.2481 288.8761 15.08844856 62872,6917.866,95.437,541.323,538.138,0.0
53706.0,STARLINK-4716,PAYLOAD,2023-10-22 22:55:52,15.08815262,0.0001718,53.2157,184.0816,76.0077,284.1106,0.0011553,0.00018134,0.0,0 STARLINK-4716,1 53706U 22107G   23295.95546476  .00018134  00000-0  11553-2 0  9994,2 53706  53.2157 184.0816 0001718  76.0077 284.1106 15.08815262 63704,6917.956,95.439,541.01,538.632,0.0
53706.0,STARLINK-4716,PAYLOAD,2023-10-23 22:46:40,15.08835085,0.0001716,53.2158,179.6196,77.6485,282.4699,0.00096237,0.00015059,0.0,0 STARLINK-4716,1 53706U 22107G   23296.94907687  .00015059  00000-0  96237-3 0  9995,2 53706  53.2158 179.6196 0001716  77.6485 282.4699 15.08835085 63853,6917.895,95.438,540.948,538.573,0.0
53706.0,STARLINK-4716,PAYLOAD,2023-10-24 01:57:26,15.08838257,0.0001709,53.2159,179.025,77.3004,282.8179,0.00094225,0.00014739,0.0,0 STARLINK-4716,1 53706U 22107G   23297.08155729  .00014739  00000-0  94225-3 0  9992,2 53706  53.2159 179.0250 0001709  77.3004 282.8179 15.08838257 63126,6917.886,95.438,540.933,538.568,0.0
53706.0,STARLINK-4716,PAYLOAD,2023-10-24 09:54:22,15.08848702,0.0001725,53.2159,177.5393,75.3976,284.7208,0.00094571,0.00014799,0.0,0 STARLINK-4716,1 53706U 22107G   23297.41275591  .00014799  00000-0  94571-3 0  9999,2 53706  53.2159 177.5393 0001725  75.3976 284.7208 15.08848702 63929,6917.854,95.437,540.912,538.525,0.0
53706.0,STARLINK-4716,PAYLOAD,2023-10-25 22:28:12,15.0886334,0.0001653,53.2178,170.6995,79.9948,280.1231,0.00047644,7.307e-05,0.0,0 STARLINK-4716,1 53706U 22107G   23298.93625766  .00007307  00000-0  47644-3 0  9996,2 53706  53.2178 170.6995 0001653  79.9948 280.1231 15.08863340 63405,6917.809,95.436,540.818,538.531,0.0
53706.0,STARLINK-4716,PAYLOAD,2023-10-26 01:38:58,15.08862819,0.0001614,53.2173,170.1051,80.4719,279.6456,0.00054429,8.39e-05,0.0,0 STARLINK-4716,1 53706U 22107G   23299.06873658  .00008390  00000-0  54429-3 0  9998,2 53706  53.2173 170.1051 0001614  80.4719 279.6456 15.08862819 64175,6917.811,95.436,540.792,538.559,0.0
53706.0,STARLINK-4716,PAYLOAD,2023-10-26 20:43:36,15.08851064,0.0001547,53.2163,166.5368,87.4814,272.6355,0.00094782,0.00014833,0.0,0 STARLINK-4716,1 53706U 22107G   23299.86361752  .00014833  00000-0  94782-3 0  9998,2 53706  53.2163 166.5368 0001547  87.4814 272.6355 15.08851064 64296,6917.847,95.437,540.782,538.641,0.0
53706.0,STARLINK-4716,PAYLOAD,2023-10-26 22:18:59,15.08853252,0.000151,53.2164,166.2391,83.326,276.7904,0.0010484,0.00016443,0.0,0 STARLINK-4716,1 53706U 22107G   23299.92985735  .00016443  00000-0  10484-2 0  9993,2 53706  53.2164 166.2391 0001510  83.3260 276.7904 15.08853252 63554,6917.84,95.437,540.749,538.66,0.0
53706.0,STARLINK-4716,PAYLOAD,2023-10-27 07:51:18,15.08851256,0.0001584,53.2168,164.455,90.4588,269.6586,0.00070574,0.00010965,0.0,0 STARLINK-4716,1 53706U 22107G   23300.32729672  .00010965  00000-0  70574-3 0  9996,2 53706  53.2168 164.4550 0001584  90.4588 269.6586 15.08851256 63614,6917.846,95.437,540.807,538.615,0.0
53706.0,STARLINK-4716,PAYLOAD,2023-10-27 20:34:23,15.0884681,0.0001748,53.2171,162.0799,110.2805,249.8375,0.00032536,4.895e-05,0.0,0 STARLINK-4716,1 53706U 22107G   23300.85721682  .00004895  00000-0  32536-3 0  9998,2 53706  53.2171 162.0799 0001748 110.2805 249.8375 15.08846810 63696,6917.86,95.437,540.934,538.515,0.0
53706.0,STARLINK-4716,PAYLOAD,2023-10-27 22:09:46,15.0884753,0.0001641,53.2167,161.7802,100.8281,259.2896,0.00042374,6.464e-05,0.0,0 STARLINK-4716,1 53706U 22107G   23300.92345570  .00006464  00000-0  42374-3 0  9999,2 53706  53.2167 161.7802 0001641 100.8281 259.2896 15.08847530 64455,6917.857,95.437,540.858,538.587,0.0
